BEIDOU 3 (C01)          
1 36287U 10001A   22318.91181810 -.00000269  00000+0  00000+0 0  9999
2 36287   1.7731  49.3778 0001349 249.8035 223.4780  1.00268287 47026
BEIDOU 5 (C06)          
1 36828U 10036A   22318.54607405 -.00000069  00000+0  00000+0 0  9998
2 36828  54.1968 174.8586 0030294 183.6426 357.6154  1.00255216 45089
BEIDOU 6 (C04)          
1 37210U 10057A   22318.84391663 -.00000100  00000+0  00000+0 0  9992
2 37210   0.8199  44.9898 0007208 163.7547 309.0269  1.00271901 44147
BEIDOU 7 (C07)          
1 37256U 10068A   22318.64378080 -.00000188  00000+0  00000+0 0  9996
2 37256  49.9472 287.8459 0022895 207.4213 257.0381  1.00259248 43653
BEIDOU 8 (C08)          
1 37384U 11013A   22318.69033201 -.00000187  00000+0  00000+0 0  9996
2 37384  60.5112  52.7786 0024616 181.9555 175.4952  1.00267871 42528
BEIDOU 9 (C09)          
1 37763U 11038A   22318.09000413  .00000001  00000+0  00000+0 0  9991
2 37763  54.4760 177.3625 0100580 227.6999 133.1184  1.00291629 41504
BEIDOU 10 (C10)         
1 37948U 11073A   22317.89799612 -.00000139  00000+0  00000+0 0  9991
2 37948  50.0648 287.5027 0086161 220.7250 322.4441  1.00260181 40257
BEIDOU 11 (C05)         
1 38091U 12008A   22318.89551825  .00000068  00000+0  00000+0 0  9993
2 38091   1.9034  70.5608 0008561 324.0378  40.4451  1.00272824 39346
BEIDOU 12 (C11)         
1 38250U 12018A   22318.46726226 -.00000083  00000+0  00000+0 0  9991
2 38250  56.6451 348.6042 0024874 253.6234  94.7291  1.86234337 71876
BEIDOU 13 (C12)         
1 38251U 12018B   22318.46439652 -.00000082  00000+0  00000+0 0  9995
2 38251  56.5605 347.9185 0015684 254.4293 136.1271  1.86234099 71885
BEIDOU 15 (C14)         
1 38775U 12050B   22318.60756528  .00000043  00000+0  00000+0 0  9998
2 38775  55.4918 106.6331 0010909 333.1584 349.0647  1.86231206 69254
BEIDOU 16 (C02)         
1 38953U 12059A   22318.97233803 -.00000164  00000+0  00000+0 0  9996
2 38953   1.2945  81.8313 0024375 291.1999 115.1258  1.00272339 36915
BEIDOU 17 (C31)         
1 40549U 15019A   22318.35305249 -.00000154  00000+0  00000+0 0  9994
2 40549  51.6277 311.0095 0038154 200.1408 124.2556  1.00264502 27933
BEIDOU 18 (C57)         
1 40748U 15037A   22318.59758148 -.00000082  00000+0  00000+0 0  9991
2 40748  55.8078 346.6883 0001959 323.7910  65.3166  1.86233284 49710
BEIDOU 19 (C58)         
1 40749U 15037B   22318.61146877 -.00000082  00000+0  00000+0 0  9995
2 40749  55.8115 346.6786 0005128 294.0857 238.4527  1.86232891 49703
BEIDOU 20 (C18)         
1 40938U 15053A   22318.27809538 -.00000125  00000+0  00000+0 0  9993
2 40938  51.2724 274.1484 0045147 199.8013 134.1600  1.00259207 26200
BEIDOU IGSO-6 (C13)     
1 41434U 16021A   22318.71711017 -.00000150  00000+0  00000+0 0  9992
2 41434  58.3241  51.2857 0049473 219.9607 133.3361  1.00295762 24334
BEIDOU-2 G7 (C03)       
1 41586U 16037A   22318.90580372 -.00000341  00000+0  00000+0 0  9998
2 41586   1.7101  69.1278 0007431 345.7144  75.6786  1.00265875 23640
BEIDOU-3 M1 (C19)       
1 43001U 17069A   22318.46100716  .00000042  00000+0  00000+0 0  9996
2 43001  55.6451 106.6582 0007295 290.1977  90.1620  1.86231501 34194
BEIDOU-3 M2 (C20)       
1 43002U 17069B   22317.85287356  .00000035  00000+0  00000+0 0  9997
2 43002  55.6438 106.7143 0005398 324.2200  51.2350  1.86231184 34177
BEIDOU-3 M3 (C27)       
1 43107U 18003A   22318.20210993 -.00000086  00000+0  00000+0 0  9992
2 43107  55.2615 347.5531 0003067  57.5550 358.4104  1.86232410 32942
BEIDOU-3 M4 (C28)       
1 43108U 18003B   22318.70087769 -.00000083  00000+0  00000+0 0  9998
2 43108  55.2487 347.5211 0004791 250.9377 182.4894  1.86232366 32958
BEIDOU-3 M5 (C21)       
1 43207U 18018A   22318.49843818  .00000042  00000+0  00000+0 0  9999
2 43207  55.6057 106.7698 0003559   5.6397 354.3543  1.86231621 32333
BEIDOU-3 M6 (C22)       
1 43208U 18018B   22318.02816404  .00000037  00000+0  00000+0 0  9994
2 43208  55.6032 106.7862 0005040 306.3693  53.5711  1.86231488 32322
BEIDOU-3 M7 (C29)       
1 43245U 18029A   22318.36537887 -.00000083  00000+0  00000+0 0  9991
2 43245  55.1684 345.3049 0001556 250.1256 185.8529  1.86232555 31486
BEIDOU-3 M8 (C30)       
1 43246U 18029B   22318.31103969 -.00000083  00000+0  10000-3 0  9992
2 43246  55.1668 345.3365 0003374 339.7189 106.4880  1.86232799 31477
BEIDOU IGSO-7 (C16)     
1 43539U 18057A   22317.95384454 -.00000081  00000+0  00000+0 0  9990
2 43539  55.0892 174.4088 0051328 226.0205 110.0760  1.00264734 16002
BEIDOU-3 M9 (C23)       
1 43581U 18062A   22318.73325601 -.00000011  00000+0  00000+0 0  9992
2 43581  54.2373 226.9438 0003891 298.6643 282.0273  1.86231916 29226
BEIDOU-3 M10 (C24)      
1 43582U 18062B   22318.60452593 -.00000011  00000+0  00000+0 0  9990
2 43582  54.2376 226.9368 0005952   2.3427 224.0404  1.86232433 29229
BEIDOU-3 M11 (C25)      
1 43602U 18067A   22318.37451543 -.00000009  00000+0  00000+0 0  9993
2 43602  54.3212 225.5731 0007546  11.3413 101.8330  1.86231462 28711
BEIDOU-3 M12 (C26)      
1 43603U 18067B   22317.53660373 -.00000005  00000+0  00000+0 0  9990
2 43603  54.3175 225.5684 0004687 359.8852 181.8540  1.86231403 28713
BEIDOU-3 M13 (C32)      
1 43622U 18072A   22318.30013973  .00000039  00000+0  00000+0 0  9997
2 43622  55.5714 106.3223 0004116 280.0885  82.4476  1.86231476 28241
BEIDOU-3 M14 (C33)      
1 43623U 18072B   22318.16628969  .00000038  00000+0  00000+0 0  9998
2 43623  55.5732 106.3195 0002135 334.8055  28.2320  1.86231481 28248
BEIDOU-3 M15 (C34)      
1 43647U 18078A   22318.34641679 -.00000084  00000+0  10000-3 0  9990
2 43647  55.0645 345.4509 0005664 352.9133  26.6548  1.86232841 27755
BEIDOU-3 M16 (C35)      
1 43648U 18078B   22317.35853117 -.00000089  00000+0  00000+0 0  9993
2 43648  55.0602 345.4906 0003406 357.0012 347.7232  1.86232203 27742
BEIDOU-3 G1 (C59)       
1 43683U 18085A   22318.83999420 -.00000265  00000+0  00000+0 0  9998
2 43683   1.0817 144.2032 0004662  62.9218 289.2301  1.00275223 14917
BEIDOU-3 M17 (C36)      
1 43706U 18093A   22318.06861403 -.00000008  00000+0  00000+0 0  9992
2 43706  54.3187 226.8632 0008863 285.5247  74.4325  1.86232086 27120
BEIDOU-3 M18 (C37)      
1 43707U 18093B   22317.58771729 -.00000006  00000+0  00000+0 0  9998
2 43707  54.3195 226.8699 0008078 313.5520 175.3425  1.86232245 27104
BEIDOU-3 IGSO-1 (C38)   
1 44204U 19023A   22318.62062660 -.00000218  00000+0  00000+0 0  9993
2 44204  56.7841  51.3681 0024168 192.1563 152.5244  1.00264175 13215
BEIDOU-2 G8             
1 44231U 19027A   22318.91260258 -.00000236  00000+0  00000+0 0  9992
2 44231   1.2239  79.8564 0006517 132.1103 315.0938  1.00269039 12936
BEIDOU-3 IGSO-2 (C39)   
1 44337U 19035A   22317.95779679 -.00000080  00000+0  00000+0 0  9990
2 44337  55.1266 170.3944 0025648 188.9331 156.9406  1.00258357 12548
BEIDOU-3 M23 (C45)      
1 44542U 19061A   22318.00502541 -.00000008  00000+0  00000+0 0  9996
2 44542  54.5451 227.0368 0008937 347.6871  12.3458  1.86231615 21375
BEIDOU-3 M24 (C46)      
1 44543U 19061B   22318.39796529 -.00000010  00000+0  00000+0 0  9993
2 44543  54.5450 226.9918 0006022 333.1457 201.8314  1.86231865 21370
BEIDOU-3 IGSO-3         
1 44709U 19073A   22318.83589745 -.00000169  00000+0  10000-3 0  9999
2 44709  57.0229 294.8194 0026928 183.3456 355.9190  1.00263152 11302
BEIDOU-3 M21            
1 44793U 19078A   22318.65944918 -.00000082  00000+0  10000-3 0  9998
2 44793  54.9126 345.4443 0005338   0.5635 182.5332  1.86232186 20240
BEIDOU-3 M22            
1 44794U 19078B   22318.09026002 -.00000085  00000+0  00000+0 0  9990
2 44794  54.8872 345.4525 0003374 350.2325  83.1716  1.86232625 20237
BEIDOU-3 M19            
1 44864U 19090A   22318.71664388  .00000044  00000+0  00000+0 0  9990
2 44864  55.5060 106.5112 0014968 267.6274  60.0691  1.86231735 19825
BEIDOU-3 M20            
1 44865U 19090B   22318.68263001  .00000044  00000+0  00000+0 0  9994
2 44865  55.5080 106.5442 0012845 282.7658 111.9692  1.86231717 19805
BEIDOU-3 G2             
1 45344U 20017A   22318.75622872 -.00000133  00000+0  00000+0 0  9991
2 45344   2.0021 359.9347 0002704 194.4596 211.7536  1.00271753 10123
BEIDOU-3 G3             
1 45807U 20040A   22318.69059351 -.00000343  00000+0  00000+0 0  9993
2 45807   1.1139 309.0861 0009596 340.0472 123.7438  1.00266962  8937
